[{"OBJECT_NAME":"KAZSTSAT","OBJECT_ID":"2018-099AB","EPOCH":"2026-03-09T14:51:18.118944","MEAN_MOTION":14.99620503,"ECCENTRICITY":0.0006528,"INCLINATION":97.4396,"RA_OF_ASC_NODE":105.0128,"ARG_OF_PERICENTER":11.1145,"MEAN_ANOMALY":349.0222,"EPHEMERIS_TYPE":0,"CLASSIFICATION_TYPE":"U","NORAD_CAT_ID":43783,"ELEMENT_SET_NO":999,"REV_AT_EPOCH":39638,"BSTAR":0.00011446,"MEAN_MOTION_DOT":1.354e-5,"MEAN_MOTION_DDOT":0},{"OBJECT_NAME":"STARLINK-5593","OBJECT_ID":"2023-028Y","EPOCH":"2026-03-09T21:16:36.092640","MEAN_MOTION":14.98328248,"ECCENTRICITY":0.00030663,"INCLINATION":69.999,"RA_OF_ASC_NODE":243.7948,"ARG_OF_PERICENTER":268.3436,"MEAN_ANOMALY":91.7372,"EPHEMERIS_TYPE":0,"CLASSIFICATION_TYPE":"U","NORAD_CAT_ID":55763,"ELEMENT_SET_NO":999,"REV_AT_EPOCH":16607,"BSTAR":-3.5436797e-5,"MEAN_MOTION_DOT":-5.16e-6,"MEAN_MOTION_DDOT":0}]
